[{"OBJECT_NAME":"ONEWEB-0044","OBJECT_ID":"2020-008V","EPOCH":"2025-09-22T05:12:53.957952","MEAN_MOTION":13.10369897,"ECCENTRICITY":0.00017434,"INCLINATION":87.8732,"RA_OF_ASC_NODE":89.6945,"ARG_OF_PERICENTER":79.6858,"MEAN_ANOMALY":280.4466,"EPHEMERIS_TYPE":0,"CLASSIFICATION_TYPE":"U","NORAD_CAT_ID":45150,"ELEMENT_SET_NO":999,"REV_AT_EPOCH":27338,"BSTAR":8.4304015e-5,"MEAN_MOTION_DOT":4.2e-7,"MEAN_MOTION_DDOT":0},{"OBJECT_NAME":"ONEWEB-0045","OBJECT_ID":"2020-008W","EPOCH":"2025-09-22T05:01:33.446496","MEAN_MOTION":13.11397043,"ECCENTRICITY":9.356e-5,"INCLINATION":87.8749,"RA_OF_ASC_NODE":74.4176,"ARG_OF_PERICENTER":114.47,"MEAN_ANOMALY":245.6525,"EPHEMERIS_TYPE":0,"CLASSIFICATION_TYPE":"U","NORAD_CAT_ID":45151,"ELEMENT_SET_NO":999,"REV_AT_EPOCH":27528,"BSTAR":-0.0021371182,"MEAN_MOTION_DOT":-7.44e-6,"MEAN_MOTION_DDOT":0},{"OBJECT_NAME":"ONEWEB-0047","OBJECT_ID":"2020-008X","EPOCH":"2025-09-22T01:23:26.738304","MEAN_MOTION":13.10371389,"ECCENTRICITY":0.00016183,"INCLINATION":87.8734,"RA_OF_ASC_NODE":89.7363,"ARG_OF_PERICENTER":84.9424,"MEAN_ANOMALY":275.1888,"EPHEMERIS_TYPE":0,"CLASSIFICATION_TYPE":"U","NORAD_CAT_ID":45152,"ELEMENT_SET_NO":999,"REV_AT_EPOCH":27308,"BSTAR":0.00066940777,"MEAN_MOTION_DOT":2.46e-6,"MEAN_MOTION_DDOT":0},{"OBJECT_NAME":"ONEWEB-0048","OBJECT_ID":"2020-008Y","EPOCH":"2025-09-21T23:26:18.669408","MEAN_MOTION":13.10370005,"ECCENTRICITY":0.00016257,"INCLINATION":87.8737,"RA_OF_ASC_NODE":89.778,"ARG_OF_PERICENTER":87.9315,"MEAN_ANOMALY":272.1998,"EPHEMERIS_TYPE":0,"CLASSIFICATION_TYPE":"U","NORAD_CAT_ID":45153,"ELEMENT_SET_NO":999,"REV_AT_EPOCH":27268,"BSTAR":0.0013906875,"MEAN_MOTION_DOT":4.98e-6,"MEAN_MOTION_DDOT":0},{"OBJECT_NAME":"ONEWEB-0049","OBJECT_ID":"2020-008Z","EPOCH":"2025-09-22T01:19:51.191040","MEAN_MOTION":13.10369754,"ECCENTRICITY":0.00021355,"INCLINATION":87.8735,"RA_OF_ASC_NODE":89.7537,"ARG_OF_PERICENTER":83.8707,"MEAN_ANOMALY":276.2663,"EPHEMERIS_TYPE":0,"CLASSIFICATION_TYPE":"U","NORAD_CAT_ID":45154,"ELEMENT_SET_NO":999,"REV_AT_EPOCH":27291,"BSTAR":0.00098007419,"MEAN_MOTION_DOT":3.55e-6,"MEAN_MOTION_DDOT":0},{"OBJECT_NAME":"ONEWEB-0051","OBJECT_ID":"2020-008AA","EPOCH":"2025-09-22T04:59:03.338592","MEAN_MOTION":13.1141679,"ECCENTRICITY":0.00016441,"INCLINATION":87.8781,"RA_OF_ASC_NODE":74.4538,"ARG_OF_PERICENTER":92.8268,"MEAN_ANOMALY":267.3048,"EPHEMERIS_TYPE":0,"CLASSIFICATION_TYPE":"U","NORAD_CAT_ID":45155,"ELEMENT_SET_NO":999,"REV_AT_EPOCH":27596,"BSTAR":-0.00036815754,"MEAN_MOTION_DOT":-1.18e-6,"MEAN_MOTION_DDOT":0},{"OBJECT_NAME":"ONEWEB-0052","OBJECT_ID":"2020-008AB","EPOCH":"2025-09-22T04:52:36.246720","MEAN_MOTION":13.10371987,"ECCENTRICITY":0.00021722,"INCLINATION":87.8748,"RA_OF_ASC_NODE":89.6761,"ARG_OF_PERICENTER":81.4783,"MEAN_ANOMALY":278.659,"EPHEMERIS_TYPE":0,"CLASSIFICATION_TYPE":"U","NORAD_CAT_ID":45156,"ELEMENT_SET_NO":999,"REV_AT_EPOCH":27284,"BSTAR":0.0017869639,"MEAN_MOTION_DOT":6.36e-6,"MEAN_MOTION_DDOT":0},{"OBJECT_NAME":"ONEWEB-0053","OBJECT_ID":"2020-008AC","EPOCH":"2025-09-22T06:17:26.756736","MEAN_MOTION":13.10374632,"ECCENTRICITY":0.00014485,"INCLINATION":87.8741,"RA_OF_ASC_NODE":89.7174,"ARG_OF_PERICENTER":76.2568,"MEAN_ANOMALY":283.872,"EPHEMERIS_TYPE":0,"CLASSIFICATION_TYPE":"U","NORAD_CAT_ID":45157,"ELEMENT_SET_NO":999,"REV_AT_EPOCH":27282,"BSTAR":0.0012674159,"MEAN_MOTION_DOT":4.55e-6,"MEAN_MOTION_DDOT":0},{"OBJECT_NAME":"ONEWEB-0054","OBJECT_ID":"2020-008AD","EPOCH":"2025-09-22T05:17:40.446528","MEAN_MOTION":13.10369768,"ECCENTRICITY":0.00017105,"INCLINATION":87.8731,"RA_OF_ASC_NODE":89.6987,"ARG_OF_PERICENTER":89.1421,"MEAN_ANOMALY":270.9903,"EPHEMERIS_TYPE":0,"CLASSIFICATION_TYPE":"U","NORAD_CAT_ID":45158,"ELEMENT_SET_NO":999,"REV_AT_EPOCH":27293,"BSTAR":-0.00049151702,"MEAN_MOTION_DOT":-1.59e-6,"MEAN_MOTION_DDOT":0},{"OBJECT_NAME":"ONEWEB-0056","OBJECT_ID":"2020-008AE","EPOCH":"2025-09-22T01:10:18.051456","MEAN_MOTION":13.10371871,"ECCENTRICITY":0.00016679,"INCLINATION":87.8739,"RA_OF_ASC_NODE":89.7306,"ARG_OF_PERICENTER":86.5969,"MEAN_ANOMALY":273.5349,"EPHEMERIS_TYPE":0,"CLASSIFICATION_TYPE":"U","NORAD_CAT_ID":45159,"ELEMENT_SET_NO":999,"REV_AT_EPOCH":27306,"BSTAR":0.0017078614,"MEAN_MOTION_DOT":6.09e-6,"MEAN_MOTION_DDOT":0},{"OBJECT_NAME":"ONEWEB-0057","OBJECT_ID":"2020-008AF","EPOCH":"2025-09-22T01:21:03.082752","MEAN_MOTION":13.10369894,"ECCENTRICITY":0.00017756,"INCLINATION":87.8734,"RA_OF_ASC_NODE":89.7427,"ARG_OF_PERICENTER":82.7671,"MEAN_ANOMALY":277.3658,"EPHEMERIS_TYPE":0,"CLASSIFICATION_TYPE":"U","NORAD_CAT_ID":45160,"ELEMENT_SET_NO":999,"REV_AT_EPOCH":27323,"BSTAR":0.00074012205,"MEAN_MOTION_DOT":2.71e-6,"MEAN_MOTION_DDOT":0},{"OBJECT_NAME":"ONEWEB-0058","OBJECT_ID":"2020-008AG","EPOCH":"2025-09-22T01:02:08.779488","MEAN_MOTION":13.10372906,"ECCENTRICITY":0.00014661,"INCLINATION":87.8736,"RA_OF_ASC_NODE":89.7555,"ARG_OF_PERICENTER":86.3558,"MEAN_ANOMALY":273.7737,"EPHEMERIS_TYPE":0,"CLASSIFICATION_TYPE":"U","NORAD_CAT_ID":45161,"ELEMENT_SET_NO":999,"REV_AT_EPOCH":27330,"BSTAR":0.0019048626,"MEAN_MOTION_DOT":6.78e-6,"MEAN_MOTION_DDOT":0},{"OBJECT_NAME":"ONEWEB-0059","OBJECT_ID":"2020-008AH","EPOCH":"2025-09-22T06:27:01.050624","MEAN_MOTION":13.10373874,"ECCENTRICITY":0.00015355,"INCLINATION":87.874,"RA_OF_ASC_NODE":89.7107,"ARG_OF_PERICENTER":88.686,"MEAN_ANOMALY":271.4443,"EPHEMERIS_TYPE":0,"CLASSIFICATION_TYPE":"U","NORAD_CAT_ID":45162,"ELEMENT_SET_NO":999,"REV_AT_EPOCH":27323,"BSTAR":0.0018068089,"MEAN_MOTION_DOT":6.43e-6,"MEAN_MOTION_DDOT":0},{"OBJECT_NAME":"ONEWEB-0062","OBJECT_ID":"2020-008AJ","EPOCH":"2025-09-22T05:14:05.896320","MEAN_MOTION":13.10369622,"ECCENTRICITY":0.00016041,"INCLINATION":87.8732,"RA_OF_ASC_NODE":89.6984,"ARG_OF_PERICENTER":101.1285,"MEAN_ANOMALY":259.0022,"EPHEMERIS_TYPE":0,"CLASSIFICATION_TYPE":"U","NORAD_CAT_ID":45163,"ELEMENT_SET_NO":999,"REV_AT_EPOCH":27309,"BSTAR":-0.00014698821,"MEAN_MOTION_DOT":-3.9e-7,"MEAN_MOTION_DDOT":0},{"OBJECT_NAME":"ONEWEB-0065","OBJECT_ID":"2020-008AK","EPOCH":"2025-09-22T01:05:31.440192","MEAN_MOTION":13.10371997,"ECCENTRICITY":0.00019868,"INCLINATION":87.8736,"RA_OF_ASC_NODE":89.7585,"ARG_OF_PERICENTER":82.2639,"MEAN_ANOMALY":277.8714,"EPHEMERIS_TYPE":0,"CLASSIFICATION_TYPE":"U","NORAD_CAT_ID":45164,"ELEMENT_SET_NO":999,"REV_AT_EPOCH":27276,"BSTAR":0.00175406,"MEAN_MOTION_DOT":6.25e-6,"MEAN_MOTION_DDOT":0},{"OBJECT_NAME":"ONEWEB-0066","OBJECT_ID":"2020-020A","EPOCH":"2025-09-22T04:37:05.367072","MEAN_MOTION":13.114158,"ECCENTRICITY":0.00015447,"INCLINATION":87.8789,"RA_OF_ASC_NODE":74.4449,"ARG_OF_PERICENTER":81.6048,"MEAN_ANOMALY":278.5255,"EPHEMERIS_TYPE":0,"CLASSIFICATION_TYPE":"U","NORAD_CAT_ID":45424,"ELEMENT_SET_NO":999,"REV_AT_EPOCH":26755,"BSTAR":-0.0013355367,"MEAN_MOTION_DOT":-4.61e-6,"MEAN_MOTION_DDOT":0},{"OBJECT_NAME":"ONEWEB-0067","OBJECT_ID":"2020-020B","EPOCH":"2025-09-22T05:31:02.812224","MEAN_MOTION":13.11418425,"ECCENTRICITY":0.00016549,"INCLINATION":87.8774,"RA_OF_ASC_NODE":74.3423,"ARG_OF_PERICENTER":83.9505,"MEAN_ANOMALY":276.1812,"EPHEMERIS_TYPE":0,"CLASSIFICATION_TYPE":"U","NORAD_CAT_ID":45425,"ELEMENT_SET_NO":999,"REV_AT_EPOCH":26761,"BSTAR":0.001579783,"MEAN_MOTION_DOT":5.73e-6,"MEAN_MOTION_DDOT":0},{"OBJECT_NAME":"ONEWEB-0080","OBJECT_ID":"2020-020C","EPOCH":"2025-09-22T05:44:15.122688","MEAN_MOTION":13.11414986,"ECCENTRICITY":0.00013093,"INCLINATION":87.8789,"RA_OF_ASC_NODE":74.4373,"ARG_OF_PERICENTER":94.9953,"MEAN_ANOMALY":265.1325,"EPHEMERIS_TYPE":0,"CLASSIFICATION_TYPE":"U","NORAD_CAT_ID":45426,"ELEMENT_SET_NO":999,"REV_AT_EPOCH":26758,"BSTAR":0.0014270516,"MEAN_MOTION_DOT":5.18e-6,"MEAN_MOTION_DDOT":0},{"OBJECT_NAME":"ONEWEB-0090","OBJECT_ID":"2020-020D","EPOCH":"2025-09-22T04:22:26.769792","MEAN_MOTION":13.11414018,"ECCENTRICITY":0.00016532,"INCLINATION":87.8788,"RA_OF_ASC_NODE":74.4493,"ARG_OF_PERICENTER":92.5226,"MEAN_ANOMALY":267.6092,"EPHEMERIS_TYPE":0,"CLASSIFICATION_TYPE":"U","NORAD_CAT_ID":45427,"ELEMENT_SET_NO":999,"REV_AT_EPOCH":26754,"BSTAR":-0.00089739064,"MEAN_MOTION_DOT":-3.05e-6,"MEAN_MOTION_DDOT":0},{"OBJECT_NAME":"ONEWEB-0061","OBJECT_ID":"2020-020E","EPOCH":"2025-09-21T23:39:04.031712","MEAN_MOTION":13.11417246,"ECCENTRICITY":0.0001614,"INCLINATION":87.8788,"RA_OF_ASC_NODE":74.4691,"ARG_OF_PERICENTER":90.7234,"MEAN_ANOMALY":269.4079,"EPHEMERIS_TYPE":0,"CLASSIFICATION_TYPE":"U","NORAD_CAT_ID":45428,"ELEMENT_SET_NO":999,"REV_AT_EPOCH":26747,"BSTAR":0.00024415997,"MEAN_MOTION_DOT":9.9e-7,"MEAN_MOTION_DDOT":0},{"OBJECT_NAME":"ONEWEB-0081","OBJECT_ID":"2020-020F","EPOCH":"2025-09-22T04:41:58.358112","MEAN_MOTION":13.11416974,"ECCENTRICITY":0.00015775,"INCLINATION":87.8785,"RA_OF_ASC_NODE":74.4459,"ARG_OF_PERICENTER":82.9302,"MEAN_ANOMALY":277.2006,"EPHEMERIS_TYPE":0,"CLASSIFICATION_TYPE":"U","NORAD_CAT_ID":45429,"ELEMENT_SET_NO":999,"REV_AT_EPOCH":26761,"BSTAR":-0.0017868016,"MEAN_MOTION_DOT":-6.21e-6,"MEAN_MOTION_DDOT":0},{"OBJECT_NAME":"ONEWEB-0069","OBJECT_ID":"2020-020G","EPOCH":"2025-09-22T04:26:06.239616","MEAN_MOTION":13.1141392,"ECCENTRICITY":0.00016717,"INCLINATION":87.8786,"RA_OF_ASC_NODE":74.4433,"ARG_OF_PERICENTER":86.6636,"MEAN_ANOMALY":273.4684,"EPHEMERIS_TYPE":0,"CLASSIFICATION_TYPE":"U","NORAD_CAT_ID":45430,"ELEMENT_SET_NO":999,"REV_AT_EPOCH":26754,"BSTAR":-0.0010953548,"MEAN_MOTION_DOT":-3.75e-6,"MEAN_MOTION_DDOT":0},{"OBJECT_NAME":"ONEWEB-0031","OBJECT_ID":"2020-020H","EPOCH":"2025-09-22T05:35:43.683936","MEAN_MOTION":13.11416819,"ECCENTRICITY":0.00015908,"INCLINATION":87.8783,"RA_OF_ASC_NODE":74.4617,"ARG_OF_PERICENTER":98.6368,"MEAN_ANOMALY":261.4941,"EPHEMERIS_TYPE":0,"CLASSIFICATION_TYPE":"U","NORAD_CAT_ID":45431,"ELEMENT_SET_NO":999,"REV_AT_EPOCH":26753,"BSTAR":0.0016761496,"MEAN_MOTION_DOT":6.07e-6,"MEAN_MOTION_DDOT":0}]
